GLOBALSTAR M024         
1 25883U 99043A   25335.41050588 -.00000128  00000+0 -22426-2 0  9990
2 25883  52.0048   3.3067 0001319  12.6452  91.1368 11.10167985133431
GLOBALSTAR M027         
1 25884U 99043B   25335.67238459 -.00000078  00000+0 -54838-3 0  9991
2 25884  52.0213  85.4411 0020902 260.3870  99.4561 11.04372796159744
GLOBALSTAR M054         
1 25885U 99043C   25335.80724083 -.00000024  00000+0  11978-2 0  9997
2 25885  52.0100 184.3126 0006017 100.2015 344.1487 11.39224385138153
GLOBALSTAR M053         
1 25886U 99043D   25335.77062990 -.00000049  00000+0  57168-3 0  9995
2 25886  51.9944 140.7915 0003587  29.3233 343.6816 11.27668968138350
GLOBALSTAR M058         
1 25907U 99049A   25335.43061595 -.00000030  00000+0  72808-3 0  9996
2 25907  51.9968  22.5876 0001860 223.2291 136.8398 11.93206383561500
GLOBALSTAR M050         
1 25908U 99049B   25335.53431330  .00000005  00000+0  10522-2 0  9991
2 25908  52.0016  17.4841 0008897   6.7848 141.5171 12.07460749168409
GLOBALSTAR M033         
1 25909U 99049C   25335.19923678 -.00000041  00000+0  48758-3 0  9999
2 25909  51.9905 238.7014 0013215 249.0133 110.9301 12.20293654556134
GLOBALSTAR M055         
1 25910U 99049D   25335.41009969 -.00000063  00000+0  26967-3 0  9996
2 25910  52.0014 240.7125 0007534 112.6998 247.4650 12.29436962188859
